[{"OBJECT_NAME":"KUIPER-00230","OBJECT_ID":"2026-072G","EPOCH":"2026-04-17T21:05:42.296928","MEAN_MOTION":15.38406847,"ECCENTRICITY":0.00016165,"INCLINATION":51.8754,"RA_OF_ASC_NODE":108.4682,"ARG_OF_PERICENTER":101.2995,"MEAN_ANOMALY":258.8174,"EPHEMERIS_TYPE":0,"CLASSIFICATION_TYPE":"U","NORAD_CAT_ID":68579,"ELEMENT_SET_NO":999,"REV_AT_EPOCH":210,"BSTAR":0.00032760255,"MEAN_MOTION_DOT":0.0001223,"MEAN_MOTION_DDOT":0},{"OBJECT_NAME":"KUIPER-00231","OBJECT_ID":"2026-072H","EPOCH":"2026-04-17T21:11:58.710624","MEAN_MOTION":15.38006246,"ECCENTRICITY":0.00027197,"INCLINATION":51.8734,"RA_OF_ASC_NODE":108.5035,"ARG_OF_PERICENTER":125.3757,"MEAN_ANOMALY":234.7485,"EPHEMERIS_TYPE":0,"CLASSIFICATION_TYPE":"U","NORAD_CAT_ID":68580,"ELEMENT_SET_NO":999,"REV_AT_EPOCH":210,"BSTAR":0.00033122723,"MEAN_MOTION_DOT":0.00012206,"MEAN_MOTION_DDOT":0},{"OBJECT_NAME":"KUIPER-00234","OBJECT_ID":"2026-072J","EPOCH":"2026-04-17T21:07:29.286048","MEAN_MOTION":15.38434611,"ECCENTRICITY":0.00022526,"INCLINATION":51.8745,"RA_OF_ASC_NODE":108.4821,"ARG_OF_PERICENTER":111.2821,"MEAN_ANOMALY":248.8407,"EPHEMERIS_TYPE":0,"CLASSIFICATION_TYPE":"U","NORAD_CAT_ID":68581,"ELEMENT_SET_NO":999,"REV_AT_EPOCH":210,"BSTAR":0.00032977592,"MEAN_MOTION_DOT":0.00012326,"MEAN_MOTION_DDOT":0},{"OBJECT_NAME":"KUIPER-00236","OBJECT_ID":"2026-072K","EPOCH":"2026-04-17T21:08:17.906784","MEAN_MOTION":15.38334505,"ECCENTRICITY":0.0002679,"INCLINATION":51.8748,"RA_OF_ASC_NODE":108.484,"ARG_OF_PERICENTER":116.0101,"MEAN_ANOMALY":244.1162,"EPHEMERIS_TYPE":0,"CLASSIFICATION_TYPE":"U","NORAD_CAT_ID":68582,"ELEMENT_SET_NO":999,"REV_AT_EPOCH":210,"BSTAR":0.00032368592,"MEAN_MOTION_DOT":0.0001205,"MEAN_MOTION_DDOT":0},{"OBJECT_NAME":"KUIPER-00244","OBJECT_ID":"2026-072L","EPOCH":"2026-04-17T21:13:30.332640","MEAN_MOTION":15.37949324,"ECCENTRICITY":0.00039455,"INCLINATION":51.8745,"RA_OF_ASC_NODE":108.5083,"ARG_OF_PERICENTER":138.9534,"MEAN_ANOMALY":221.175,"EPHEMERIS_TYPE":0,"CLASSIFICATION_TYPE":"U","NORAD_CAT_ID":68583,"ELEMENT_SET_NO":999,"REV_AT_EPOCH":210,"BSTAR":0.00031917439,"MEAN_MOTION_DOT":0.00011726,"MEAN_MOTION_DDOT":0},{"OBJECT_NAME":"KUIPER-00253","OBJECT_ID":"2026-072M","EPOCH":"2026-04-17T21:18:55.645056","MEAN_MOTION":15.37477116,"ECCENTRICITY":0.00054501,"INCLINATION":51.8702,"RA_OF_ASC_NODE":108.5351,"ARG_OF_PERICENTER":147.7043,"MEAN_ANOMALY":212.4278,"EPHEMERIS_TYPE":0,"CLASSIFICATION_TYPE":"U","NORAD_CAT_ID":68584,"ELEMENT_SET_NO":999,"REV_AT_EPOCH":210,"BSTAR":-1.0816338e-5,"MEAN_MOTION_DOT":-7.98e-6,"MEAN_MOTION_DDOT":0},{"OBJECT_NAME":"KUIPER-00254","OBJECT_ID":"2026-072N","EPOCH":"2026-04-17T21:26:18.146112","MEAN_MOTION":15.36922297,"ECCENTRICITY":0.00076001,"INCLINATION":51.8705,"RA_OF_ASC_NODE":108.5684,"ARG_OF_PERICENTER":152.8727,"MEAN_ANOMALY":207.2658,"EPHEMERIS_TYPE":0,"CLASSIFICATION_TYPE":"U","NORAD_CAT_ID":68585,"ELEMENT_SET_NO":999,"REV_AT_EPOCH":210,"BSTAR":0.00030412965,"MEAN_MOTION_DOT":0.00010784,"MEAN_MOTION_DDOT":0},{"OBJECT_NAME":"KUIPER-00263","OBJECT_ID":"2026-072P","EPOCH":"2026-04-17T21:05:48.970464","MEAN_MOTION":15.38505965,"ECCENTRICITY":0.00020823,"INCLINATION":51.8753,"RA_OF_ASC_NODE":108.4707,"ARG_OF_PERICENTER":83.6014,"MEAN_ANOMALY":276.521,"EPHEMERIS_TYPE":0,"CLASSIFICATION_TYPE":"U","NORAD_CAT_ID":68586,"ELEMENT_SET_NO":999,"REV_AT_EPOCH":210,"BSTAR":0.00033746399,"MEAN_MOTION_DOT":0.00012653,"MEAN_MOTION_DDOT":0},{"OBJECT_NAME":"KUIPER-00269","OBJECT_ID":"2026-072Q","EPOCH":"2026-04-17T21:16:27.797376","MEAN_MOTION":15.37665198,"ECCENTRICITY":0.00045178,"INCLINATION":51.8728,"RA_OF_ASC_NODE":108.5237,"ARG_OF_PERICENTER":129.858,"MEAN_ANOMALY":230.2805,"EPHEMERIS_TYPE":0,"CLASSIFICATION_TYPE":"U","NORAD_CAT_ID":68587,"ELEMENT_SET_NO":999,"REV_AT_EPOCH":210,"BSTAR":0.00030602888,"MEAN_MOTION_DOT":0.0001112,"MEAN_MOTION_DDOT":0},{"OBJECT_NAME":"KUIPER-00272","OBJECT_ID":"2026-072R","EPOCH":"2026-04-17T21:19:56.071488","MEAN_MOTION":15.37434103,"ECCENTRICITY":0.00057991,"INCLINATION":51.8712,"RA_OF_ASC_NODE":108.5397,"ARG_OF_PERICENTER":144.563,"MEAN_ANOMALY":215.5743,"EPHEMERIS_TYPE":0,"CLASSIFICATION_TYPE":"U","NORAD_CAT_ID":68588,"ELEMENT_SET_NO":999,"REV_AT_EPOCH":210,"BSTAR":0.00030683935,"MEAN_MOTION_DOT":0.00011067,"MEAN_MOTION_DDOT":0},{"OBJECT_NAME":"KUIPER-00285","OBJECT_ID":"2026-072S","EPOCH":"2026-04-17T21:21:12.773952","MEAN_MOTION":15.37341864,"ECCENTRICITY":0.00062692,"INCLINATION":51.8722,"RA_OF_ASC_NODE":108.5453,"ARG_OF_PERICENTER":150.8397,"MEAN_ANOMALY":209.2941,"EPHEMERIS_TYPE":0,"CLASSIFICATION_TYPE":"U","NORAD_CAT_ID":68589,"ELEMENT_SET_NO":999,"REV_AT_EPOCH":210,"BSTAR":0.00030625586,"MEAN_MOTION_DOT":0.00011012,"MEAN_MOTION_DDOT":0},{"OBJECT_NAME":"KUIPER-00286","OBJECT_ID":"2026-072T","EPOCH":"2026-04-17T21:15:45.364608","MEAN_MOTION":15.377652,"ECCENTRICITY":0.00041833,"INCLINATION":51.872,"RA_OF_ASC_NODE":108.5213,"ARG_OF_PERICENTER":132.8353,"MEAN_ANOMALY":227.2986,"EPHEMERIS_TYPE":0,"CLASSIFICATION_TYPE":"U","NORAD_CAT_ID":68590,"ELEMENT_SET_NO":999,"REV_AT_EPOCH":210,"BSTAR":0.00031272026,"MEAN_MOTION_DOT":0.0001141,"MEAN_MOTION_DDOT":0},{"OBJECT_NAME":"KUIPER-00289","OBJECT_ID":"2026-072U","EPOCH":"2026-04-17T21:38:04.309728","MEAN_MOTION":15.36021111,"ECCENTRICITY":0.00107002,"INCLINATION":51.8645,"RA_OF_ASC_NODE":108.6181,"ARG_OF_PERICENTER":167.2073,"MEAN_ANOMALY":192.9187,"EPHEMERIS_TYPE":0,"CLASSIFICATION_TYPE":"U","NORAD_CAT_ID":68591,"ELEMENT_SET_NO":999,"REV_AT_EPOCH":210,"BSTAR":0.00026505249,"MEAN_MOTION_DOT":9.078e-5,"MEAN_MOTION_DDOT":0},{"OBJECT_NAME":"KUIPER-00290","OBJECT_ID":"2026-072V","EPOCH":"2026-04-17T23:10:54.496992","MEAN_MOTION":15.36054678,"ECCENTRICITY":0.00109099,"INCLINATION":51.8631,"RA_OF_ASC_NODE":108.2992,"ARG_OF_PERICENTER":164.6345,"MEAN_ANOMALY":195.4974,"EPHEMERIS_TYPE":0,"CLASSIFICATION_TYPE":"U","NORAD_CAT_ID":68592,"ELEMENT_SET_NO":999,"REV_AT_EPOCH":211,"BSTAR":0.00039577044,"MEAN_MOTION_DOT":0.00013773,"MEAN_MOTION_DDOT":0},{"OBJECT_NAME":"KUIPER-00293","OBJECT_ID":"2026-072W","EPOCH":"2026-04-17T21:41:41.129664","MEAN_MOTION":15.35625648,"ECCENTRICITY":0.00114395,"INCLINATION":51.8629,"RA_OF_ASC_NODE":108.6329,"ARG_OF_PERICENTER":168.7694,"MEAN_ANOMALY":191.3549,"EPHEMERIS_TYPE":0,"CLASSIFICATION_TYPE":"U","NORAD_CAT_ID":68593,"ELEMENT_SET_NO":999,"REV_AT_EPOCH":210,"BSTAR":-0.00029321205,"MEAN_MOTION_DOT":-0.0001071,"MEAN_MOTION_DDOT":0},{"OBJECT_NAME":"KUIPER-00294","OBJECT_ID":"2026-072X","EPOCH":"2026-04-17T21:34:27.223680","MEAN_MOTION":15.3629399,"ECCENTRICITY":0.00095995,"INCLINATION":51.8667,"RA_OF_ASC_NODE":108.6034,"ARG_OF_PERICENTER":164.2836,"MEAN_ANOMALY":195.845,"EPHEMERIS_TYPE":0,"CLASSIFICATION_TYPE":"U","NORAD_CAT_ID":68594,"ELEMENT_SET_NO":999,"REV_AT_EPOCH":210,"BSTAR":0.00039179072,"MEAN_MOTION_DOT":0.00013732,"MEAN_MOTION_DDOT":0}]
